TIANMU-1 07             
1 57399U 23101A   26065.57454230  .00008352  00000+0  29795-3 0  9991
2 57399  97.2728 118.5929 0004609 142.4105 217.7458 15.29118809145964
STARLINK-30437          
1 58036U 23156J   26068.26676835 -.00000628  00000+0 -90727-5 0  9991
2 58036  53.1603  80.1618 0001127  92.6776 267.4354 15.30194159136205
